CIC_OEM_VERS = 2.0
CREATION_DATE = 2025-06-16T07:49:25.483185
ORIGINATOR = ISAE-SUPAERO


META_START
OBJECT_NAME = BLUE1
OBJECT_ID = BLUE1
CENTER_NAME = Earth
REF_FRAME = EME2000
TIME_SYSTEM = UTC
START_TIME = 2025-06-16T07:49:07.000
USEABLE_START_TIME = 2025-06-16T07:49:07.000
USEABLE_STOP_TIME = 2025-06-16T23:59:07.000
STOP_TIME = 2025-06-16T23:59:07.000
INTERPOLATION = lagrange
INTERPOLATION_DEGREE = 5
META_STOP


60842 28147.0 -19318.52 3660.2524 3660.2524 -1.1554466 -3.0491770000000002 -3.0491770000000002
60842 28267.0 -19450.344 3293.1019 3293.1015 -1.0395337 -3.0699469 -3.0699536
60842 28387.0 -19568.093 2923.5705000000003 2923.569 -0.92286554 -3.0885356 -3.0885484
60842 28507.0 -19671.804 2551.9418 2551.9383 -0.805535 -3.1049078 -3.1049259000000005
60842 28627.0 -19761.399 2178.4818 2178.4759 -0.68762588 -3.1190523 -3.1190749
60842 28747.0 -19836.814000000002 1803.4587 1803.4498999999998 -0.56922284 -3.1309588 -3.1309852
60842 28867.0 -19897.996 1427.1416000000002 1427.1294 -0.45041087 -3.1406187 -3.1406481
60842 28987.0 -19944.9 1049.8003999999999 1049.7845 -0.33127523000000003 -3.1480252 -3.1480568
60842 29107.0 -19977.492000000002 671.7058900000001 671.68613 -0.21190145000000002 -3.1531727000000003 -3.1532059
60842 29227.0 -19995.75 293.12942 293.10563 -0.09237519899999999 -3.1560578 -3.1560916000000003
60842 29347.0 -19999.66 -85.657391 -85.685242 0.027217713 -3.1566782 -3.156712
60842 29467.0 -19989.219 -464.38274 -464.4146 0.14679145 -3.1550335 -3.1550664000000004
60842 29587.0 -19964.434 -842.77487 -842.8105899999999 0.26626017 -3.1511248999999997 -3.1511562
60842 29707.0 -19925.324 -1220.5623 -1220.6016000000002 0.38553812 -3.1449551000000002 -3.144984
60842 29827.0 -19871.916 -1597.4738 -1597.5165 0.5045396799999999 -3.1365287 -3.1365544
60842 29947.0 -19804.249 -1973.2391000000002 -1973.2846000000002 0.6231794300000001 -3.1258515000000004 -3.1258733000000003
60842 30067.0 -19722.371 -2347.5885 -2347.6362999999997 0.7413722 -3.1129314 -3.1129485
60842 30187.0 -19626.341 -2720.2533 -2720.3029 0.85903316 -3.0977775000000003 -3.0977892000000002
60842 30307.0 -19516.227 -3090.9661 -3091.0168 0.9760778299999999 -3.0804007 -3.0804062
60842 30427.0 -19392.11 -3459.4610000000002 -3459.5119 1.0924222 -3.0608135 -3.0608121
60842 30547.0 -19254.077 -3825.4735 -3825.5238 1.2079828 -3.0390299 -3.0390209
60842 30667.0 -19102.229 -4188.741 -4188.7896 1.3226766 -3.0150657 -3.0150482000000003
60842 30787.0 -18936.673 -4549.0027 -4549.0488 1.4364214 -2.9889379 -2.9889114
60842 30907.0 -18757.529 -4906.0003 -4906.0426 1.5491354 -2.9606653 -2.9606291000000002
60842 31027.0 -18564.925 -5259.477400000001 -5259.514700000001 1.6607378000000002 -2.9302683000000003 -2.9302216
60842 31147.0 -18359.0 -5609.1806 -5609.2116 1.7711484000000002 -2.8977686 -2.8977108
60842 31267.0 -18139.9 -5954.858700000001 -5954.8821 1.8802881 -2.8631896 -2.8631201
60842 31387.0 -17907.784 -6296.263900000001 -6296.278200000001 1.9880785 -2.8265561 -2.8264742000000003
60842 31507.0 -17662.818 -6633.151 -6633.1548 2.0944422 -2.7878943 -2.7877995
60842 31627.0 -17405.178 -6965.2785 -6965.2701 2.199303 -2.7472321 -2.7471237
60842 31747.0 -17135.049 -7292.4079 -7292.3856 2.3025855 -2.7045987 -2.7044761
60842 31867.0 -16852.624 -7614.3045 -7614.2667 2.4042156 -2.6600245 -2.6598872
60842 31987.0 -16558.106 -7930.737400000001 -7930.6822 2.5041203999999997 -2.6135417000000003 -2.6133891
60842 32107.0 -16251.707 -8241.4795 -8241.405 2.6022283 -2.5651835000000003 -2.5650152
60842 32227.0 -15933.646 -8546.3079 -8546.2122 2.6984688 -2.5149847 -2.5148002000000003
60842 32347.0 -15604.152 -8845.0037 -8844.884900000001 2.7927728000000003 -2.4629813 -2.4627802
60842 32467.0 -15263.461000000001 -9137.3527 -9137.2087 2.8850728 -2.4092107 -2.4089924000000003
60842 32587.0 -14911.817000000001 -9423.1451 -9422.9739 2.9753024 -2.3537114000000003 -2.3534755
60842 32707.0 -14549.474 -9702.1759 -9701.9753 3.063397 -2.2965232 -2.2962694000000003
60842 32827.0 -14176.69 -9974.2447 -9974.0126 3.1492933 -2.2376872 -2.237415
60842 32947.0 -13793.734 -10239.157000000001 -10238.891 3.2329298 -2.1772455 -2.1769548
60842 33067.0 -13400.879 -10496.721 -10496.419 3.3142464 -2.1152416 -2.114932
60842 33187.0 -12998.41 -10746.754 -10746.414 3.3931847 -2.05172 -2.0513911
60842 33307.0 -12586.613 -10989.075 -10988.694 3.4696883 -1.9867262 -1.9863778
60842 33427.0 -12165.784 -11223.511 -11223.087 3.5437021 -1.9203068 -1.9199388
60842 33547.0 -11736.226 -11449.894 -11449.424 3.615173 -1.8525095 -1.8521216
60842 33667.0 -11298.246000000001 -11668.06 -11667.543 3.6840499 -1.7833830000000002 -1.782975
60842 33787.0 -10852.16 -11877.854 -11877.287 3.7502833 -1.7129767 -1.7125486
60842 33907.0 -10398.286 -12079.125 -12078.506 3.8138256999999998 -1.6413413000000001 -1.6408929
60842 34027.0 -9936.9508 -12271.729 -12271.054 3.8746316000000003 -1.5685281 -1.5680594
60842 34147.0 -9468.4855 -12455.527 -12454.795 3.9326572 -1.4945893000000001 -1.4941002
60842 34267.0 -8993.226 -12630.388 -12629.596 3.987861 -1.4195779 -1.4190685
60842 34387.0 -8511.5133 -12796.185 -12795.331 4.0402033 -1.3435478 -1.3430181
60842 34507.0 -8023.6930999999995 -12952.801 -12951.881 4.0896467 -1.2665535 -1.2660035
60842 34627.0 -7530.1155 -13100.122 -13099.135 4.1361556 -1.1886502 -1.18808
60842 34747.0 -7031.1345 -13238.042 -13236.986 4.179696600000001 -1.1098937000000002 -1.1093036
60842 34867.0 -6527.1083 -13366.464 -13365.336000000001 4.2202386 -1.0303406 -1.0297306000000002
60842 34987.0 -6018.398400000001 -13485.295 -13484.092 4.2577525 -0.9500478900000001 -0.94941821
60842 35107.0 -5505.369900000001 -13594.448 -13593.169 4.2922112 -0.8690731700000001 -0.86842405
60842 35227.0 -4988.3909 -13693.847 -13692.489 4.3235901000000005 -0.7874744899999999 -0.7868062
60842 35347.0 -4467.8324 -13783.42 -13781.98 4.3518666 -0.7053103700000001 -0.7046232099999999
60842 35467.0 -3944.0678 -13863.101 -13861.578 4.3770204999999995 -0.62263974 -0.62193404
60842 35587.0 -3417.4731 -13932.835000000001 -13931.226 4.3990336 -0.53952188 -0.538798
60842 35707.0 -2888.426 -13992.571 -13990.874 4.4178901999999995 -0.4560164 -0.45527472999999996
60842 35827.0 -2357.3062000000004 -14042.266 -14040.479000000001 4.4335766 -0.37218318 -0.37142416
60842 35947.0 -1824.4949 -14081.884 -14080.005000000001 4.4460816 -0.28808233 -0.28730642
60842 36067.0 -1290.3743000000002 -14111.398000000001 -14109.425000000001 4.4553962 -0.20377418 -0.20298186999999998
60842 36187.0 -755.32767 -14130.784 -14128.715 4.4615137 -0.11931919 -0.11851099999999999
60842 36307.0 -219.73905 -14140.031 -14137.864 4.4644295000000005 -0.034777918 -0.033954414
60842 36427.0 316.00726000000003 -14139.130000000001 -14136.863000000001 4.4641416 0.049788993 0.050627227
60842 36547.0 851.52679 -14128.083 -14125.715 4.4606502 0.13432089 0.13517324
60842 36667.0 1386.4353 -14106.897 -14104.426 4.4539576 0.21875715 0.21962296
60842 36787.0 1920.3488 -14075.587 -14073.011 4.4440686 0.3030372 0.30391579
60842 36907.0 2452.8841 -14034.177 -14031.494 4.4309903 0.38710059 0.38799126
60842 37027.0 2983.6592 -13982.694 -13979.905 4.414732 0.47088702 0.47178902
60842 37147.0 3512.2931000000003 -13921.177 -13918.279 4.3953052 0.55433638 0.5552489500000001
60842 37267.0 4038.4063 -13849.669 -13846.661 4.3727238 0.6373888 0.63831115
60842 37387.0 4561.6213 -13768.222 -13765.102 4.3470041 0.71998469 0.72091601
60842 37507.0 5081.5625 -13676.894 -13673.662 4.3181642 0.8020648 0.80300424
60842 37627.0 5597.8567 -13575.75 -13572.404 4.286224900000001 0.88357022 0.8845169100000001
60842 37747.0 6110.133400000001 -13464.862000000001 -13461.403 4.2512091000000005 0.9644424800000001 0.9653955200000001
60842 37867.0 6618.0248 -13344.311 -13340.737000000001 4.2131416 1.0446235 1.0455820000000002
60842 37987.0 7121.1664 -13214.183 -13210.493 4.1720499 1.1240558 1.1250188
60842 38107.0 7619.197 -13074.57 -13070.765 4.1279633 1.2026823 1.2036487999999999
60842 38227.0 8111.759 -12925.573 -12921.652 4.080913300000001 1.2804466 1.2814157
60842 38347.0 8598.499 -12767.299 -12763.262 4.0309337 1.3572929 1.3582635
60842 38467.0 9079.0674 -12599.862000000001 -12595.708 3.9780602 1.433166 1.4341371
60842 38587.0 9553.1192 -12423.381 -12419.11 3.9223307000000003 1.5080114000000002 1.508982
60842 38707.0 10020.314 -12237.982 -12233.595000000001 3.8637851000000003 1.5817754 1.5827444000000002
60842 38827.0 10480.317000000001 -12043.800000000001 -12039.297 3.8024654 1.654405 1.6553714
60842 38947.0 10932.797 -11840.973 -11836.354 3.7384155000000003 1.7258480999999999 1.7268107000000001
60842 39067.0 11377.429 -11629.646 -11624.912 3.6716813000000004 1.7960533 1.797011
60842 39187.0 11813.895 -11409.971 -11405.123 3.6023107 1.8649702 1.865922
60842 39307.0 12241.880000000001 -11182.107 -11177.144 3.5303533000000002 1.9325493 1.933494
60842 39427.0 12661.078 -10946.215 -10941.14 3.4558608 1.9987421 1.9996785000000001
60842 39547.0 13071.187 -10702.466 -10697.279 3.3788865 2.0635009 2.0644279
60842 39667.0 13471.914 -10451.034 -10445.736 3.2994858 2.1267793999999998 2.1276958
60842 39787.0 13862.969000000001 -10192.1 -10186.693000000001 3.2177154 2.1885319 2.1894366
60842 39907.0 14244.073 -9925.849199999999 -9920.3342 3.1336341 2.2487141000000004 2.2496059
60842 40027.0 14614.951000000001 -9652.473 -9646.851900000001 3.0473022000000003 2.3072828 2.3081605
60842 40147.0 14975.338 -9372.1675 -9366.442000000001 2.9587817 2.3641958 2.3650583000000003
60842 40267.0 15324.974 -9085.1339 -9079.3058 2.8681360000000002 2.4194123 2.4202583
60842 40387.0 15663.608 -8791.578 -8785.6495 2.7754301999999997 2.4728925 2.4737209
60842 40507.0 15990.997000000001 -8491.7107 -8485.6839 2.6807309 2.524598 2.5254076
60842 40627.0 16306.907000000001 -8185.747 -8179.6242 2.5841059 2.5744917000000003 2.5752812
60842 40747.0 16611.109 -7873.906599999999 -7867.6903 2.4856248 2.6225375 2.6233059
60842 40867.0 16903.385000000002 -7556.4133 -7550.1061 2.3853581 2.6687011000000003 2.6694470999999997
